H1 CPF 01  gfz 2022 08 05 00  7171 tandemx   
H2 1003001  6202 36605    2022 08 05 00 59 42 2022 08 10 00 00 42   120 1 1  0 0 0
H9
10 0 59800  55422.000000  0    2094033.325   2735309.738  -5972643.321
10 0 59800  55542.000000  0    2752676.604   3147714.418  -5481836.827
10 0 59800  55662.000000  0    3370173.862   3494306.411  -4895185.267
10 0 59800  55782.000000  0    3934546.167   3769830.511  -4222858.170
10 0 59800  55902.000000  0    4434633.757   3970454.756  -3476543.841
10 0 59800  56022.000000  0    4860322.207   4093827.953  -2669253.892
10 0 59800  56142.000000  0    5202752.445   4139108.137  -1815100.716
10 0 59800  56262.000000  0    5454511.055   4106961.545   -929051.935
10 0 59800  56382.000000  0    5609794.875   3999530.766    -26665.278
10 0 59800  56502.000000  0    5664545.830   3820373.338    876189.599
10 0 59800  56622.000000  0    5616552.742   3574370.805   1763618.134
10 0 59800  56742.000000  0    5465515.434   3267610.018   2619989.611
10 0 59800  56862.000000  0    5213069.822   2907241.349   3430221.330
10 0 59800  56982.000000  0    4862773.309   2501316.051   4180051.903
10 0 59800  57102.000000  0    4420050.130   2058606.563   4856295.799
10 0 59800  57222.000000  0    3892102.990   1588417.617   5447075.511
10 0 59800  57342.000000  0    3287787.509   1100390.060   5942030.952
10 0 59800  57462.000000  0    2617454.594    604301.286   6332495.439
10 0 59800  57582.000000  0    1892767.569    109869.857   6611639.665
10 0 59800  57702.000000  0    1126496.614   -373433.373   6774586.191
10 0 59800  57822.000000  0     332291.037   -836566.327   6818491.071
10 0 59800  57942.000000  0    -475565.126  -1271084.402   6742589.377
10 0 59800  58062.000000  0   -1282409.708  -1669294.174   6548207.056
10 0 59800  58182.000000  0   -2073467.342  -2024389.596   6238737.701
10 0 59800  58302.000000  0   -2834117.639  -2330567.641   5819587.305
10 0 59800  58422.000000  0   -3550166.680  -2583124.929   5298088.631
10 0 59800  58542.000000  0   -4208117.390  -2778532.556   4683378.499
10 0 59800  58662.000000  0   -4795429.088  -2914486.025   3986241.622
10 0 59800  58782.000000  0   -5300762.674  -2989929.320   3218924.605
10 0 59800  58902.000000  0   -5714206.762  -3005053.461   2394923.086
10 0 59800  59022.000000  0   -6027480.535  -2961270.006   1528743.493
10 0 59800  59142.000000  0   -6234106.407  -2861158.948    635642.006
10 0 59800  59262.000000  0   -6329546.989  -2708390.510   -268651.494
10 0 59800  59382.000000  0   -6311304.872  -2507625.093  -1168219.023
10 0 59800  59502.000000  0   -6178980.011  -2264392.208  -2047244.967
10 0 59800  59622.000000  0   -5934283.345  -1984952.676  -2890301.631
10 0 59800  59742.000000  0   -5581009.224  -1676147.932  -3682624.680
10 0 59800  59862.000000  0   -5124966.728  -1345240.290  -4410373.394
10 0 59800  59982.000000  0   -4573872.925   -999748.296  -5060870.408
10 0 59800  60102.000000  0   -3937210.570   -647280.716  -5622817.417
10 0 59800  60222.000000  0   -3226054.102   -295373.520  -6086482.249
10 0 59800  60342.000000  0   -2452869.539     48666.653  -6443855.855
10 0 59800  60462.000000  0   -1631292.261    377909.090  -6688778.886
10 0 59800  60582.000000  0    -775886.233    685932.975  -6817036.808
10 0 59800  60702.000000  0      98109.986    966948.598  -6826423.931
10 0 59800  60822.000000  0     975047.379   1215902.544  -6716776.641
10 0 59800  60942.000000  0    1839139.749   1428565.873  -6489978.738
10 0 59800  61062.000000  0    2674742.531   1601605.575  -6149932.821
10 0 59800  61182.000000  0    3466631.748   1732636.405  -5702499.634
10 0 59800  61302.000000  0    4200277.985   1820252.625  -5155406.365
10 0 59800  61422.000000  0    4862114.076   1864040.218  -4518125.604
10 0 59800  61542.000000  0    5439791.417   1864568.592  -3801721.909
10 0 59800  61662.000000  0    5922417.705   1823361.084  -3018668.703
10 0 59800  61782.000000  0    6300772.668   1742845.132  -2182638.604
10 0 59800  61902.000000  0    6567496.667   1626283.234  -1308267.356
10 0 59800  62022.000000  0    6717244.894   1477684.967   -410896.143
10 0 59800  62142.000000  0    6746803.588   1301701.916    493702.890
10 0 59800  62262.000000  0    6655162.640   1103509.108   1389610.494
10 0 59800  62382.000000  0    6443547.488    888675.375   2261048.303
10 0 59800  62502.000000  0    6115403.830    663024.758   3092666.928
10 0 59800  62622.000000  0    5676337.565    432494.012   3869823.609
10 0 59800  62742.000000  0    5134010.758    202989.423   4578845.860
10 0 59800  62862.000000  0    4497999.088    -19752.201   5207273.315
10 0 59800  62982.000000  0    3779612.766   -230297.676   5744077.610
10 0 59800  63102.000000  0    2991684.717   -423641.199   6179851.677
10 0 59800  63222.000000  0    2148334.159   -595315.243   6506968.920
10 0 59800  63342.000000  0    1264708.996   -741487.860   6719711.255
10 0 59800  63462.000000  0     356709.851   -859044.284   6814364.384
10 0 59800  63582.000000  0    -559297.739   -945650.730   6789277.394
10 0 59800  63702.000000  0   -1466777.526   -999800.165   6644888.810
10 0 59800  63822.000000  0   -2349319.694  -1020838.518   6383718.736
10 0 59800  63942.000000  0   -3190935.783  -1008971.006   6010327.713
10 0 59800  64062.000000  0   -3976349.532   -965248.851   5531243.956
10 0 59800  64182.000000  0   -4691279.058   -891537.562   4954855.930
10 0 59800  64302.000000  0   -5322703.706   -790466.160   4291270.791
10 0 59800  64422.000000  0   -5859109.447   -665358.221   3552140.612
10 0 59800  64542.000000  0   -6290707.286   -520146.245   2750459.861
10 0 59800  64662.000000  0   -6609622.141   -359271.139   1900337.958
10 0 59800  64782.000000  0   -6810047.057   -187568.784   1016747.211
10 0 59800  64902.000000  0   -6888355.863    -10147.362    115252.031
10 0 59800  65022.000000  0   -6843172.143    167742.255   -788273.817
10 0 59800  65142.000000  0   -6675392.323    340839.828  -1677936.113
10 0 59800  65262.000000  0   -6388162.689    504008.503  -2538106.903
10 0 59800  65382.000000  0   -5986814.308    652364.212  -3353705.512
10 0 59800  65502.000000  0   -5478752.077    781398.719  -4110468.303
10 0 59800  65622.000000  0   -4873304.488    887092.873  -4795197.220
10 0 59800  65742.000000  0   -4181539.263    966017.159  -5395985.597
10 0 59800  65862.000000  0   -3416049.846   1015417.664  -5902416.819
10 0 59800  65982.000000  0   -2590717.924   1033285.320  -6305734.373
10 0 59800  66102.000000  0   -1720457.859   1018407.891  -6598981.323
10 0 59800  66222.000000  0    -820946.362    970404.972  -6777109.331
10 0 59800  66342.000000  0      91656.304    889743.881  -6837054.770
10 0 59800  66462.000000  0    1000988.643    777737.307  -6777785.594
10 0 59800  66582.000000  0    1890774.355    636522.269  -6600319.866
10 0 59800  66702.000000  0    2745107.974    469020.754  -6307709.927
10 0 59800  66822.000000  0    3548734.262    278883.093  -5904995.472
10 0 59800  66942.000000  0    4287317.582     70413.582  -5399124.808
10 0 59800  67062.000000  0    4947697.679   -151519.674  -4798846.570
10 0 59800  67182.000000  0    5518130.097   -381589.374  -4114570.313
10 0 59800  67302.000000  0    5988503.369   -614126.851  -3358195.494
10 0 59800  67422.000000  0    6350529.018   -843250.653  -2542912.689
10 0 59800  67542.000000  0    6597900.565  -1063003.541  -1682978.293
10 0 59800  67662.000000  0    6726416.025  -1267493.869   -793465.510
10 0 59800  67782.000000  0    6734059.882  -1451038.406    110002.772
10 0 59800  67902.000000  0    6621042.915  -1608303.048   1011534.355
10 0 59800  68022.000000  0    6389796.461  -1734437.784   1895255.825
10 0 59800  68142.000000  0    6044922.398  -1825202.525   2745601.079
10 0 59800  68262.000000  0    5593098.467  -1877079.174   3547594.662
10 0 59800  68382.000000  0    5042942.006  -1887368.633   4287121.598
10 0 59800  68502.000000  0    4404836.848  -1854269.537   4951178.774
10 0 59800  68622.000000  0    3690729.075  -1776936.555   5528104.212
10 0 59800  68742.000000  0    2913894.188  -1655518.363   6007780.985
10 0 59800  68862.000000  0    2088681.942  -1491173.745   6381809.371
10 0 59800  68982.000000  0    1230246.199  -1286066.431   6643648.250
10 0 59800  69102.000000  0     354262.769  -1043337.981   6788723.957
10 0 59800  69222.000000  0    -523358.422   -767059.034   6814504.488
10 0 59800  69342.000000  0   -1386761.408   -462160.789   6720539.834
10 0 59800  69462.000000  0   -2220429.229   -134347.231   6508469.228
10 0 59800  69582.000000  0   -3009461.603    210010.922   6181994.787
10 0 59800  69702.000000  0   -3739842.024    563998.659   5746821.914
10 0 59800  69822.000000  0   -4398690.469    920293.314   5210565.734
10 0 59800  69942.000000  0   -4974496.398   1271313.567   4582623.758
10 0 59800  70062.000000  0   -5457327.895   1609378.476   3874016.146
10 0 59800  70182.000000  0   -5839011.263   1926872.504   3097194.987
10 0 59800  70302.000000  0   -6113277.957   2216413.292   2265826.668
10 0 59800  70422.000000  0   -6275875.987   2471018.350   1394549.911
10 0 59800  70542.000000  0   -6324642.101   2684266.908    498712.506
10 0 59800  70662.000000  0   -6259530.823   2850451.841   -405907.107
10 0 59800  70782.000000  0   -6082601.090   2964717.926  -1303386.545
10 0 59800  70902.000000  0   -5797960.228   3023182.963  -2177948.519
10 0 59800  71022.000000  0   -5411666.685   3023039.165  -3014246.767
10 0 59800  71142.000000  0   -4931593.672   2962630.991  -3797640.461
10 0 59800  71262.000000  0   -4367259.369   2841508.931  -4514451.796
10 0 59800  71382.000000  0   -3729628.199   2660457.974  -5152201.735
10 0 59800  71502.000000  0   -3030888.927   2421500.697  -5699819.712
10 0 59800  71622.000000  0   -2284216.555   2127876.432  -6147825.848
10 0 59800  71742.000000  0   -1503520.156   1783996.193  -6488485.109
10 0 59800  71862.000000  0    -703183.183   1395374.322  -6715928.195
99
